     3.00           N                   E                   RINEX VERSION / TYPE
BRD_USR             ESA                 20190108 161811  UTCPGM / RUN BY / DATE
 GAL   5.0750E+01  7.0312E-02 -4.8523E-03  0.0000E+00       IONOSPHERIC CORR
GAUT  0.0000000000E+00 0.000000000E+00 172800 2035 GSTB   0 TIME SYSTEM CORR
GPGA -5.5297277868E-10 4.884981308E-15 259200 2035 GSTB   0 TIME SYSTEM CORR
                                                            END OF HEADER
E19 2019 01 08 14 00 00-9.282899554819E-06 2.984279490192E-13 0.000000000000E+00
     1.160000000000E+02 1.659375000000E+01 3.405141837825E-09-5.426687929506E-01
     8.959323167801E-07 1.333843683824E-04 8.510425686836E-06 5.440614311218E+03
     2.232000000000E+05 3.166496753693E-08 1.240046363217E+00 5.960464477539E-08
     9.580768968227E-01 1.565312500000E+02 2.340635948265E+00-5.533801933634E-09
     6.346692936664E-10 2.580000000000E+02 2.035000000000E+03 0.000000000000E+00
     3.120000000000E+00 0.000000000000E+00-8.614733815193E-09 0.000000000000E+00
     2.241500000000E+05 0.000000000000E+00 0.000000000000E+00 0.000000000000E+00
E30 2019 01 08 14 00 00 5.204891320318E-03-3.041122909053E-11 0.000000000000E+00
     1.160000000000E+02 8.206250000000E+01 2.421886595584E-09 1.482569659709E+00
     3.693625330925E-06 2.997999545187E-04 1.194141805172E-05 5.440619821548E+03
     2.232000000000E+05 1.061707735062E-07-2.943964882217E+00-9.313225746155E-09
     9.878488348177E-01 1.014687500000E+02 5.006438846845E-01-5.071282667850E-09
    -5.139499795082E-10 5.210000000000E+02 2.035000000000E+03 0.000000000000E+00
     3.120000000000E+00 0.000000000000E+00-3.259629011154E-09-3.958120942116E-09
     2.242150000000E+05 0.000000000000E+00 0.000000000000E+00 0.000000000000E+00
E30 2019 01 08 14 00 00 5.204891378526E-03-3.041122909053E-11 0.000000000000E+00
     1.160000000000E+02 8.206250000000E+01 2.421886595584E-09 1.482569659709E+00
     3.693625330925E-06 2.997999545187E-04 1.194141805172E-05 5.440619821548E+03
     2.232000000000E+05 1.061707735062E-07-2.943964882217E+00-9.313225746155E-09
     9.878488348177E-01 1.014687500000E+02 5.006438846845E-01-5.071282667850E-09
    -5.139499795082E-10 2.580000000000E+02 2.035000000000E+03 0.000000000000E+00
     3.120000000000E+00 0.000000000000E+00-3.259629011154E-09 0.000000000000E+00
     2.242500000000E+05 0.000000000000E+00 0.000000000000E+00 0.000000000000E+00
E14 2019 01 08 14 00 00 6.462923658546E-03-5.599076757790E-12 0.000000000000E+00
     1.160000000000E+02 5.737500000000E+01 3.165131840446E-09-1.285933044593E+00
     5.323439836502E-06 1.663550731027E-01 1.348555088043E-06 5.289351522446E+03
     2.232000000000E+05 3.557652235031E-06-1.462921405943E+00 6.088986992836E-06
     8.825819531152E-01 3.147812500000E+02 1.454845944539E+00-4.508402078757E-09
    -1.033257325029E-09 2.580000000000E+02 2.035000000000E+03 0.000000000000E+00
     3.120000000000E+00 5.600000000000E+01 3.306195139885E-08 0.000000000000E+00
     2.243000000000E+05 0.000000000000E+00 0.000000000000E+00 0.000000000000E+00
E26 2019 01 08 14 00 00 5.043035198469E-03-4.334310688137E-11 0.000000000000E+00
     1.160000000000E+02-9.440625000000E+01 3.147988269204E-09 3.970231588653E-01
    -4.472211003304E-06 3.247811691836E-04-5.364418029785E-07 5.440606084824E+03
     2.232000000000E+05-4.097819328308E-08-8.582517104973E-01 5.587935447693E-09
     9.782697057514E-01 3.585625000000E+02-2.070869104353E+00-5.958819637327E-09
    -1.371485699313E-10 2.580000000000E+02 2.035000000000E+03 0.000000000000E+00
     3.120000000000E+00 0.000000000000E+00 1.396983861923E-09 0.000000000000E+00
     2.243000000000E+05 0.000000000000E+00 0.000000000000E+00 0.000000000000E+00
E14 2019 01 08 14 00 00 6.462928256951E-03-5.599076757790E-12 0.000000000000E+00
     1.160000000000E+02 5.737500000000E+01 3.165131840446E-09-1.285933044593E+00
     5.323439836502E-06 1.663550731027E-01 1.348555088043E-06 5.289351522446E+03
     2.232000000000E+05 3.557652235031E-06-1.462921405943E+00 6.088986992836E-06
     8.825819531152E-01 3.147812500000E+02 1.454845944539E+00-4.508402078757E-09
    -1.033257325029E-09 5.210000000000E+02 2.035000000000E+03 0.000000000000E+00
     3.120000000000E+00 4.550000000000E+02 3.306195139885E-08 3.725290298462E-08
     2.243050000000E+05 0.000000000000E+00 0.000000000000E+00 0.000000000000E+00
E26 2019 01 08 14 00 00 5.043035896961E-03-4.334310688137E-11 0.000000000000E+00
     1.160000000000E+02-9.440625000000E+01 3.147988269204E-09 3.970231588653E-01
    -4.472211003304E-06 3.247811691836E-04-5.364418029785E-07 5.440606084824E+03
     2.232000000000E+05-4.097819328308E-08-8.582517104973E-01 5.587935447693E-09
     9.782697057514E-01 3.585625000000E+02-2.070869104353E+00-5.958819637327E-09
    -1.371485699313E-10 5.210000000000E+02 2.035000000000E+03 0.000000000000E+00
     3.120000000000E+00 0.000000000000E+00 1.396983861923E-09 1.396983861923E-09
     2.243050000000E+05 0.000000000000E+00 0.000000000000E+00 0.000000000000E+00
E09 2019 01 08 14 00 00 6.564335781150E-03-1.131184035330E-11 0.000000000000E+00
     1.160000000000E+02 2.253125000000E+01 3.337639026062E-09 6.227205436102E-02
     1.082196831703E-06 2.431949833408E-04 8.367002010345E-06 5.440614326477E+03
     2.232000000000E+05 9.313225746155E-09 1.234690052517E+00-3.352761268616E-08
     9.583223203484E-01 1.604687500000E+02 8.551954010640E-02-5.487371428189E-09
     5.646663777640E-10 2.580000000000E+02 2.035000000000E+03 0.000000000000E+00
     3.120000000000E+00 0.000000000000E+00-3.259629011154E-09 0.000000000000E+00
     2.244500000000E+05 0.000000000000E+00 0.000000000000E+00 0.000000000000E+00
E36 2019 01 08 14 00 00 7.620602264069E-04-4.419575816428E-12 0.000000000000E+00
     1.160000000000E+02-8.740625000000E+01 2.953337304067E-09 3.070322081867E+00
    -4.230067133904E-06 3.287305589765E-04-3.241002559662E-07 5.440601131439E+03
     2.232000000000E+05 6.146728992462E-08-8.671889403688E-01 1.490116119385E-08
     9.851563940724E-01 3.564687500000E+02-1.607207174287E+00-5.843814846916E-09
    -9.000374901741E-11 2.580000000000E+02 2.035000000000E+03 0.000000000000E+00
     3.120000000000E+00 5.600000000000E+01 9.313225746155E-10 0.000000000000E+00
     2.244500000000E+05 0.000000000000E+00 0.000000000000E+00 0.000000000000E+00
E01 2019 01 08 14 10 00-5.164244794287E-04-8.185452315956E-12 0.000000000000E+00
     1.170000000000E+02 6.900000000000E+01 2.473674467042E-09 5.342238116061E-01
     3.062188625336E-06 1.119661610574E-04 1.250207424164E-05 5.440621658325E+03
     2.238000000000E+05-7.450580596924E-08-2.947379602191E+00-8.195638656616E-08
     9.902959954032E-01 8.409375000000E+01-8.306043976871E-01-5.161643574602E-09
    -5.232360805973E-10 5.210000000000E+02 2.035000000000E+03 0.000000000000E+00
     3.120000000000E+00 0.000000000000E+00-4.423782229424E-09-4.889443516731E-09
     2.244850000000E+05 0.000000000000E+00 0.000000000000E+00 0.000000000000E+00
E02 2019 01 08 14 10 00 4.248169716448E-05 1.662670001679E-12 0.000000000000E+00
     1.170000000000E+02 6.618750000000E+01 2.359383992099E-09 3.102844948072E+00
     3.008171916008E-06 2.682915655896E-04 1.158192753792E-05 5.440627588272E+03
     2.238000000000E+05 1.098960638046E-07-2.947412880651E+00 7.078051567078E-08
     9.903048416688E-01 1.064062500000E+02-2.593466788530E-01-5.044138680051E-09
    -4.718053668730E-10 5.210000000000E+02 2.035000000000E+03 0.000000000000E+00
     3.120000000000E+00 0.000000000000E+00-6.286427378654E-09-7.683411240578E-09
     2.244850000000E+05 0.000000000000E+00 0.000000000000E+00 0.000000000000E+00
E03 2019 01 08 14 10 00-1.198967220262E-04-4.220623850415E-12 0.000000000000E+00
     1.170000000000E+02 3.725000000000E+01 3.554433770719E-09-1.967499387481E+00
     1.767650246620E-06 2.627926878631E-04 8.046627044678E-06 5.440615606308E+03
     2.238000000000E+05-1.676380634308E-08 1.243318647635E+00 2.793967723846E-08
     9.523042893761E-01 1.655000000000E+02 6.185308149883E-01-5.662021560211E-09
     5.957391006391E-10 5.210000000000E+02 2.035000000000E+03 0.000000000000E+00
     3.120000000000E+00 0.000000000000E+00-1.862645149231E-09-2.095475792885E-09
     2.244850000000E+05 0.000000000000E+00 0.000000000000E+00 0.000000000000E+00
E05 2019 01 08 14 10 00 1.285689068027E-04-6.494360604847E-12 0.000000000000E+00
     1.170000000000E+02 2.962500000000E+01 3.457286867018E-09-2.151876140519E+00
     1.445412635803E-06 1.339864684269E-04 7.878988981247E-06 5.440617700577E+03
     2.238000000000E+05-3.725290298462E-08 1.243301560752E+00-4.284083843231E-08
     9.523179106063E-01 1.691562500000E+02 1.590385576686E+00-5.592375802042E-09
     6.050252017282E-10 5.210000000000E+02 2.035000000000E+03 0.000000000000E+00
     3.120000000000E+00 0.000000000000E+00-1.396983861923E-09-1.396983861923E-09
     2.244850000000E+05 0.000000000000E+00 0.000000000000E+00 0.000000000000E+00
E09 2019 01 08 14 10 00 6.564329087269E-03-1.128341864387E-11 0.000000000000E+00
     1.170000000000E+02 2.096875000000E+01 3.343353549810E-09 1.370807431975E-01
     1.009553670883E-06 2.429933520034E-04 8.402392268181E-06 5.440613872528E+03
     2.238000000000E+05 9.313225746155E-09 1.234686759488E+00-3.352761268616E-08
     9.583226612083E-01 1.596875000000E+02 8.509620526137E-02-5.487014270454E-09
     5.646663777640E-10 5.210000000000E+02 2.035000000000E+03 0.000000000000E+00
     3.120000000000E+00 0.000000000000E+00-3.259629011154E-09-3.958120942116E-09
     2.244850000000E+05 0.000000000000E+00 0.000000000000E+00 0.000000000000E+00
